GSAT0216 (GALILEO 20)   
1 43056U 17079B   26197.04913653  .00000052  00000+0  00000+0 0  9993
2 43056  55.0677 220.7120 0004909 277.5632  82.4337  1.70474464 53493
GSAT0217 (GALILEO 21)   
1 43057U 17079C   26194.92364590  .00000071  00000+0  00000+0 0  9999
2 43057  55.0663 220.7682 0005177 287.6925  72.3210  1.70474255 53448
GSAT0218 (GALILEO 22)   
1 43058U 17079D   26196.90343938  .00000053  00000+0  00000+0 0  9993
2 43058  55.0660 220.7113 0005401 274.7995  85.1927  1.70474408 53503
BEIDOU-3 M7             
1 43107U 18003A   26196.27249963 -.00000070  00000+0  00000+0 0  9999
2 43107  54.3016 301.3358 0004346  99.7203 260.3603  1.86228000 57870
BEIDOU-3 M8             
1 43108U 18003B   26197.29074103 -.00000075  00000+0  00000+0 0  9990
2 43108  54.2930 301.2814 0003089 256.6040 103.3959  1.86230859 57906
BEIDOU-3 M4             
1 43207U 18018A   26195.04916456 -.00000038  00000+0  00000+0 0  9992
2 43207  56.6746  62.2635 0007449  28.5883 331.5267  1.86230761 57243
BEIDOU-3 M3             
1 43208U 18018B   26197.26348367 -.00000047  00000+0  00000+0 0  9999
2 43208  56.6762  62.1943 0007679 346.8655  13.1881  1.86230815 57280
BEIDOU-3 M9             
1 43245U 18029A   26196.40756697 -.00000067  00000+0  00000+0 0  9998
2 43245  54.1665 298.9609 0001236 187.3041 172.7303  1.86227873 56420
BEIDOU-3 M10            
1 43246U 18029B   26195.80481817 -.00000065  00000+0  00000+0 0  9999
2 43246  54.1648 299.0090 0003232  37.5330 322.5237  1.86229073 56394
IRNSS-1I                
1 43286U 18035A   26196.75461519  .00000058  00000+0  00000+0 0  9993
2 43286  28.8196  73.7504 0018428 178.5609   8.0026  1.00271937 30362
COSMOS 2527 [GLONASS-M] 
1 43508U 18053A   26195.30191606 -.00000008  00000+0  00000+0 0  9993
2 43508  65.5923  73.0036 0006413 229.6749 130.3442  2.13102086 62855
BEIDOU-2 IGSO-7         
1 43539U 18057A   26182.89122331 -.00000033  00000+0  00000+0 0  9998
2 43539  55.1981 162.9292 0104946 237.8611 308.6338  1.00246939 29273
GSAT0221 (GALILEO 25)   
1 43564U 18060A   26197.39413417 -.00000102  00000+0  00000+0 0  9996
2 43564  57.1589 340.9925 0002685 284.3216  75.6348  1.70476101 49652
GSAT0222 (GALILEO 26)   
1 43565U 18060B   26194.68091083 -.00000095  00000+0  00000+0 0  9998
2 43565  57.1635 341.0695 0002781 235.2693 124.6907  1.70475786 49667
GSAT0219 (GALILEO 23)   
1 43566U 18060C   26196.66151734 -.00000101  00000+0  00000+0 0  9997
2 43566  57.1620 341.0175 0001836 298.1228  61.8439  1.70476050 49675
GSAT0220 (GALILEO 24)   
1 43567U 18060D   26196.88253092 -.00000101  00000+0  00000+0 0  9992
2 43567  57.1615 341.0110 0002114 289.9723  69.9905  1.70475782 49664
BEIDOU-3 M5             
1 43581U 18062A   26197.10261403  .00000039  00000+0  00000+0 0  9990
2 43581  54.0864 181.3210 0005659 293.1569  66.7535  1.86228746 54179
BEIDOU-3 M6             
1 43582U 18062B   26196.96621981  .00000039  00000+0  00000+0 0  9995
2 43582  54.0864 181.3149 0005365  10.9821 348.9998  1.86227848 54171
BEIDOU-3 M12            
1 43602U 18067A   26195.83074670  .00000041  00000+0  00000+0 0  9998
2 43602  54.1815 180.1029 0007941  30.1280 329.8903  1.86227572 53638
BEIDOU-3 M11            
1 43603U 18067B   26195.96588683  .00000041  00000+0  00000+0 0  9997
2 43603  54.1789 180.0620 0004640  13.0811 346.9028  1.86227031 53669
BEIDOU-3 M13            
1 43622U 18072A   26194.84670723 -.00000039  00000+0  00000+0 0  9995
2 43622  56.6475  61.7808 0006235 333.7731  26.2691  1.86231187 53152
BEIDOU-3 M14            
1 43623U 18072B   26196.85995828 -.00000045  00000+0  00000+0 0  9992
2 43623  56.6514  61.7086 0005557  10.9419 349.1444  1.86231129 53180
BEIDOU-3 M16            
1 43647U 18078A   26195.40402676 -.00000064  00000+0  00000+0 0  9999
2 43647  54.0634 299.0313 0006624  39.7782 320.3030  1.86232196 52667
BEIDOU-3 M15            
1 43648U 18078B   26195.53329314 -.00000064  00000+0  00000+0 0  9991
2 43648  54.0590 299.0269 0003536  57.8391 302.2283  1.86232329 52684
BEIDOU-3 G1             
1 43683U 18085A   26197.58675656 -.00000121  00000+0  00000+0 0  9992
2 43683   2.9405  96.5725 0008009 356.7471 212.2963  1.00272437 28359
COSMOS 2529 [GLONASS-M] 
1 43687U 18086A   26197.27515200  .00000052  00000+0  00000+0 0  9993
2 43687  64.2972 191.6121 0012126 256.3116 103.5531  2.13101958 59908
BEIDOU-3 M17            
1 43706U 18093A   26196.23416436  .00000040  00000+0  00000+0 0  9996
2 43706  54.1700 181.3447 0010121 294.3653  66.9155  1.86228289 52065
BEIDOU-3 M18            
1 43707U 18093B   26196.63271432  .00000039  00000+0  00000+0 0  9994
2 43707  54.1709 181.3234 0008154 323.5258  36.3899  1.86226503 52061
NAVSTAR 77 (USA 289)    
1 43873U 18109A   26197.17189328 -.00000021  00000+0  00000+0 0  9990
2 43873  55.6993  91.0428 0038595 197.1262 334.9231  2.00562827 55654
BEIDOU-3 IGSO-1         
1 44204U 19023A   26197.31702608 -.00000209  00000+0  00000+0 0  9991
2 44204  58.7367  37.3490 0025911 224.1033 266.0076  1.00282974  7503
BEIDOU-2 G8             
1 44231U 19027A   26197.58462602 -.00000259  00000+0  00000+0 0  9996
2 44231   1.7305  74.4942 0009681 282.1354 292.7739  1.00271229 26372
